[{"OBJECT_NAME":"STARLINK-35477","OBJECT_ID":"2025-253V","EPOCH":"2026-03-09T09:57:46.940832","MEAN_MOTION":15.27582395,"ECCENTRICITY":0.00020924,"INCLINATION":42.9991,"RA_OF_ASC_NODE":213.9589,"ARG_OF_PERICENTER":275.6665,"MEAN_ANOMALY":84.3948,"EPHEMERIS_TYPE":0,"CLASSIFICATION_TYPE":"U","NORAD_CAT_ID":66338,"ELEMENT_SET_NO":999,"REV_AT_EPOCH":2020,"BSTAR":0.00092907269,"MEAN_MOTION_DOT":0.00025394,"MEAN_MOTION_DDOT":0},{"OBJECT_NAME":"KUIPER-00209","OBJECT_ID":"2026-030N","EPOCH":"2026-03-09T14:49:43.575744","MEAN_MOTION":15.3016195,"ECCENTRICITY":0.0012191,"INCLINATION":51.8838,"RA_OF_ASC_NODE":220.0775,"ARG_OF_PERICENTER":59.1967,"MEAN_ANOMALY":301.0215,"EPHEMERIS_TYPE":0,"CLASSIFICATION_TYPE":"U","NORAD_CAT_ID":67776,"ELEMENT_SET_NO":999,"REV_AT_EPOCH":507,"BSTAR":0.0011963,"MEAN_MOTION_DOT":0.00035298,"MEAN_MOTION_DDOT":0}]
